TEVEL2-1                
1 63217U 25052H   26068.64782323  .00020683  00000+0  70600-3 0  9994
2 63217  97.3991 324.7682 0004767 104.8919 255.2849 15.30341923 54855
STARLINK-35401          
1 66067U 25235K   26068.71129557  .00020382  00000+0  69840-3 0  9995
2 66067  53.1580 245.2487 0000985  61.4112 298.6988 15.30199024 22893
